{"type": "FeatureCollection", "features": [{"type": "Feature", "properties": {"norad_id": 28890, "name": "BEIJING 1", "group": "dmc", "lat": -75.55948427104966, "lon": 157.06079992103614, "alt_km": 700.3584756086002, "timestamp": "2025-12-21T03:56:50.520958+00:00", "meta": {"OBJECT_NAME": "BEIJING 1", "OBJECT_ID": "2005-043A", "EPOCH": "2025-12-20T20:05:59.028864", "MEAN_MOTION": 14.63373718, "ECCENTRICITY": 0.0015707, "INCLINATION": 98.2658, "RA_OF_ASC_NODE": 122.3638, "ARG_OF_PERICENTER": 117.3371, "MEAN_ANOMALY": 242.9431, "EPHEMERIS_TYPE": 0, "CLASSIFICATION_TYPE": "U", "NORAD_CAT_ID": 28890, "ELEMENT_SET_NO": 999, "REV_AT_EPOCH": 7456, "BSTAR": 8.8246e-05, "MEAN_MOTION_DOT": 4.08e-06, "MEAN_MOTION_DDOT": 0}, "tle": {"line1": "1 28890U 05043A   25354.83748876  .00000408  00000+0  88246-4 0  9992", "line2": "2 28890  98.2658 122.3638 0015707 117.3371 242.9431 14.63373718 74565"}}, "geometry": {"type": "Point", "coordinates": [157.06079992103614, -75.55948427104966]}}, {"type": "Feature", "properties": {"norad_id": 33320, "name": "HUANJING 1A (HJ-1A)", "group": "dmc", "lat": -15.610023866640582, "lon": 160.9577928137496, "alt_km": 636.9013614260721, "timestamp": "2025-12-21T03:56:50.520982+00:00", "meta": {"OBJECT_NAME": "HUANJING 1A (HJ-1A)", "OBJECT_ID": "2008-041A", "EPOCH": "2025-12-20T20:35:33.565632", "MEAN_MOTION": 14.83417227, "ECCENTRICITY": 0.0019514, "INCLINATION": 97.6537, "RA_OF_ASC_NODE": 342.8173, "ARG_OF_PERICENTER": 8.733, "MEAN_ANOMALY": 351.422, "EPHEMERIS_TYPE": 0, "CLASSIFICATION_TYPE": "U", "NORAD_CAT_ID": 33320, "ELEMENT_SET_NO": 999, "REV_AT_EPOCH": 93196, "BSTAR": 0.00014193, "MEAN_MOTION_DOT": 1.117e-05, "MEAN_MOTION_DDOT": 0}, "tle": {"line1": "1 33320U 08041A   25354.85802738  .00001117  00000+0  14193-3 0  9994", "line2": "2 33320  97.6537 342.8173 0019514   8.7330 351.4220 14.83417227931963"}}, "geometry": {"type": "Point", "coordinates": [160.9577928137496, -15.610023866640582]}}, {"type": "Feature", "properties": {"norad_id": 33321, "name": "HUANJING 1B (HJ-1B)", "group": "dmc", "lat": 38.76082721401107, "lon": -19.4006725523726, "alt_km": 591.2712109436779, "timestamp": "2025-12-21T03:56:50.520994+00:00", "meta": {"OBJECT_NAME": "HUANJING 1B (HJ-1B)", "OBJECT_ID": "2008-041B", "EPOCH": "2025-12-20T21:17:39.888672", "MEAN_MOTION": 14.82842295, "ECCENTRICITY": 0.0038004, "INCLINATION": 97.6396, "RA_OF_ASC_NODE": 346.521, "ARG_OF_PERICENTER": 50.0476, "MEAN_ANOMALY": 310.4066, "EPHEMERIS_TYPE": 0, "CLASSIFICATION_TYPE": "U", "NORAD_CAT_ID": 33321, "ELEMENT_SET_NO": 999, "REV_AT_EPOCH": 93198, "BSTAR": 0.00015754, "MEAN_MOTION_DOT": 1.24e-05, "MEAN_MOTION_DDOT": 0}, "tle": {"line1": "1 33321U 08041B   25354.88726723  .00001240  00000+0  15754-3 0  9998", "line2": "2 33321  97.6396 346.5210 0038004  50.0476 310.4066 14.82842295931987"}}, "geometry": {"type": "Point", "coordinates": [-19.4006725523726, 38.76082721401107]}}, {"type": "Feature", "properties": {"norad_id": 33446, "name": "YAOGAN-4", "group": "dmc", "lat": -52.32927178911701, "lon": -64.43207621805652, "alt_km": 618.837427115649, "timestamp": "2025-12-21T03:56:50.521005+00:00", "meta": {"OBJECT_NAME": "YAOGAN-4", "OBJECT_ID": "2008-061A", "EPOCH": "2025-12-20T07:07:49.061568", "MEAN_MOTION": 14.82702731, "ECCENTRICITY": 0.00131175, "INCLINATION": 97.9192, "RA_OF_ASC_NODE": 284.3224, "ARG_OF_PERICENTER": 296.7402, "MEAN_ANOMALY": 63.2469, "EPHEMERIS_TYPE": 0, "CLASSIFICATION_TYPE": "U", "NORAD_CAT_ID": 33446, "ELEMENT_SET_NO": 999, "REV_AT_EPOCH": 91915, "BSTAR": 0.000123707, "MEAN_MOTION_DOT": 9.46e-06, "MEAN_MOTION_DDOT": 0}, "tle": {"line1": "1 33446U 08061A   25354.29709562  .00000946  00000+0  12371-3 0  9999", "line2": "2 33446  97.9192 284.3224 0013117 296.7402  63.2469 14.82702731919157"}}, "geometry": {"type": "Point", "coordinates": [-64.43207621805652, -52.32927178911701]}}, {"type": "Feature", "properties": {"norad_id": 35681, "name": "DEIMOS-1", "group": "dmc", "lat": -22.308771405254028, "lon": -27.813196959182143, "alt_km": 652.0003839565152, "timestamp": "2025-12-21T03:56:50.521015+00:00", "meta": {"OBJECT_NAME": "DEIMOS-1", "OBJECT_ID": "2009-041A", "EPOCH": "2025-12-20T20:31:12.406080", "MEAN_MOTION": 14.7496404, "ECCENTRICITY": 0.0002593, "INCLINATION": 97.7144, "RA_OF_ASC_NODE": 155.0802, "ARG_OF_PERICENTER": 66.6697, "MEAN_ANOMALY": 293.4785, "EPHEMERIS_TYPE": 0, "CLASSIFICATION_TYPE": "U", "NORAD_CAT_ID": 35681, "ELEMENT_SET_NO": 999, "REV_AT_EPOCH": 88059, "BSTAR": 7.0229e-05, "MEAN_MOTION_DOT": 4.25e-06, "MEAN_MOTION_DDOT": 0}, "tle": {"line1": "1 35681U 09041A   25354.85500470  .00000425  00000+0  70229-4 0  9999", "line2": "2 35681  97.7144 155.0802 0002593  66.6697 293.4785 14.74964040880594"}}, "geometry": {"type": "Point", "coordinates": [-27.813196959182143, -22.308771405254028]}}, {"type": "Feature", "properties": {"norad_id": 35683, "name": "UK-DMC 2", "group": "dmc", "lat": -57.13265963910163, "lon": -62.509979527757, "alt_km": 651.1104743674568, "timestamp": "2025-12-21T03:56:50.521025+00:00", "meta": {"OBJECT_NAME": "UK-DMC 2", "OBJECT_ID": "2009-041C", "EPOCH": "2025-12-20T20:21:46.516320", "MEAN_MOTION": 14.75638111, "ECCENTRICITY": 0.000154, "INCLINATION": 97.8564, "RA_OF_ASC_NODE": 129.5225, "ARG_OF_PERICENTER": 93.418, "MEAN_ANOMALY": 266.7206, "EPHEMERIS_TYPE": 0, "CLASSIFICATION_TYPE": "U", "NORAD_CAT_ID": 35683, "ELEMENT_SET_NO": 999, "REV_AT_EPOCH": 88026, "BSTAR": 0.00011808, "MEAN_MOTION_DOT": 7.57e-06, "MEAN_MOTION_DDOT": 0}, "tle": {"line1": "1 35683U 09041C   25354.84845505  .00000757  00000+0  11808-3 0  9996", "line2": "2 35683  97.8564 129.5225 0001540  93.4180 266.7206 14.75638111880267"}}, "geometry": {"type": "Point", "coordinates": [-62.509979527757, -57.13265963910163]}}, {"type": "Feature", "properties": {"norad_id": 40715, "name": "DMC3-FM1", "group": "dmc", "lat": -43.59411655694895, "lon": 34.67880913763242, "alt_km": 617.5436869042169, "timestamp": "2025-12-21T03:56:50.521035+00:00", "meta": {"OBJECT_NAME": "DMC3-FM1", "OBJECT_ID": "2015-032A", "EPOCH": "2025-12-20T20:28:29.853120", "MEAN_MOTION": 14.85452855, "ECCENTRICITY": 0.0004163, "INCLINATION": 97.6689, "RA_OF_ASC_NODE": 221.7496, "ARG_OF_PERICENTER": 288.0656, "MEAN_ANOMALY": 72.0106, "EPHEMERIS_TYPE": 0, "CLASSIFICATION_TYPE": "U", "NORAD_CAT_ID": 40715, "ELEMENT_SET_NO": 999, "REV_AT_EPOCH": 56343, "BSTAR": 0.00010115, "MEAN_MOTION_DOT": 8.21e-06, "MEAN_MOTION_DDOT": 0}, "tle": {"line1": "1 40715U 15032A   25354.85312330  .00000821  00000+0  10115-3 0  9993", "line2": "2 40715  97.6689 221.7496 0004163 288.0656  72.0106 14.85452855563438"}}, "geometry": {"type": "Point", "coordinates": [34.67880913763242, -43.59411655694895]}}, {"type": "Feature", "properties": {"norad_id": 40716, "name": "DMC3-FM2", "group": "dmc", "lat": 74.14553009388473, "lon": 71.84739106484257, "alt_km": 608.3002542210852, "timestamp": "2025-12-21T03:56:50.521044+00:00", "meta": {"OBJECT_NAME": "DMC3-FM2", "OBJECT_ID": "2015-032B", "EPOCH": "2025-12-20T21:00:52.487136", "MEAN_MOTION": 14.85457611, "ECCENTRICITY": 0.0004683, "INCLINATION": 97.6748, "RA_OF_ASC_NODE": 223.2212, "ARG_OF_PERICENTER": 294.8032, "MEAN_ANOMALY": 65.2696, "EPHEMERIS_TYPE": 0, "CLASSIFICATION_TYPE": "U", "NORAD_CAT_ID": 40716, "ELEMENT_SET_NO": 999, "REV_AT_EPOCH": 56343, "BSTAR": 0.00016228, "MEAN_MOTION_DOT": 1.348e-05, "MEAN_MOTION_DDOT": 0}, "tle": {"line1": "1 40716U 15032B   25354.87560749  .00001348  00000+0  16228-3 0  9991", "line2": "2 40716  97.6748 223.2212 0004683 294.8032  65.2696 14.85457611563431"}}, "geometry": {"type": "Point", "coordinates": [71.84739106484257, 74.14553009388473]}}, {"type": "Feature", "properties": {"norad_id": 40717, "name": "DMC3-FM3", "group": "dmc", "lat": -12.041132033045287, "lon": -133.21216337216973, "alt_km": 614.897356048984, "timestamp": "2025-12-21T03:56:50.521054+00:00", "meta": {"OBJECT_NAME": "DMC3-FM3", "OBJECT_ID": "2015-032C", "EPOCH": "2025-12-20T21:32:06.763200", "MEAN_MOTION": 14.8544146, "ECCENTRICITY": 0.0004087, "INCLINATION": 97.6804, "RA_OF_ASC_NODE": 224.8806, "ARG_OF_PERICENTER": 296.8971, "MEAN_ANOMALY": 63.1826, "EPHEMERIS_TYPE": 0, "CLASSIFICATION_TYPE": "U", "NORAD_CAT_ID": 40717, "ELEMENT_SET_NO": 999, "REV_AT_EPOCH": 56344, "BSTAR": 4.8541e-05, "MEAN_MOTION_DOT": 3.67e-06, "MEAN_MOTION_DDOT": 0}, "tle": {"line1": "1 40717U 15032C   25354.89730050  .00000367  00000+0  48541-4 0  9992", "line2": "2 40717  97.6804 224.8806 0004087 296.8971  63.1826 14.85441460563441"}}, "geometry": {"type": "Point", "coordinates": [-133.21216337216973, -12.041132033045287]}}]}